GLOBALSTAR M068 [-]     
1 32266U 07048D   23296.83852990 -.00000051  00000+0  29360-3 0  9993
2 32266  51.9902 338.3300 0000545 233.9730 297.6809 12.62768806741456
GLOBALSTAR M079 [+]     
1 37188U 10054A   23296.82788552 -.00000096  00000+0  43577-4 0  9999
2 37188  52.0024 173.4661 0001070  74.7419   2.8772 12.62269274600384
GLOBALSTAR M074 [+]     
1 37189U 10054B   23296.91922189 -.00000088  00000+0  88019-4 0  9997
2 37189  51.9999 172.6034 0000883  81.6095 291.6695 12.62271261601008
GLOBALSTAR M076 [+]     
1 37190U 10054C   23296.94575955 -.00000088  00000+0  87214-4 0  9993
2 37190  52.0013 172.6394 0001378  93.4077 280.1136 12.62262559600720
GLOBALSTAR M077 [+]     
1 37191U 10054D   23297.48749209 -.00000080  00000+0  13085-3 0  9995
2 37191  52.0046 127.6729 0000904  97.2518 278.1698 12.62267919601899
GLOBALSTAR M075 [+]     
1 37192U 10054E   23297.54806284 -.00000097  00000+0  36797-4 0  9994
2 37192  51.9942 213.3983 0000912  63.4316 107.3331 12.62254832600399
GLOBALSTAR M073 [+]     
1 37193U 10054F   23297.51566715 -.00000082  00000+0  12006-3 0  9994
2 37193  52.0033 126.8545 0000965  91.9360 292.7001 12.62269011601904
GLOBALSTAR M083 [+]     
1 37739U 11033A   23297.16488213 -.00000091  00000+0  68706-4 0  9994
2 37739  51.9857  77.4718 0000631  85.0952  86.2675 12.62270595571184
GLOBALSTAR M088 [+]     
1 37740U 11033B   23297.10479122 -.00000077  00000+0  15060-3 0  9997
2 37740  51.9753 343.6588 0000478  62.6118 314.6384 12.62266554566659
GLOBALSTAR M091 [+]     
1 37741U 11033C   23296.75615764 -.00000074  00000+0  16626-3 0  9998
2 37741  52.0001 307.1991 0000607  42.9546 128.5413 12.62267493567100
GLOBALSTAR M085 [+]     
1 37742U 11033D   23297.20271546 -.00000083  00000+0  11615-3 0  9999
2 37742  51.9860 257.4087 0000739  44.4835  57.8811 12.62264141568169
GLOBALSTAR M081 [+]     
1 37743U 11033E   23297.22969459 -.00000093  00000+0  59093-4 0  9993
2 37743  51.9956 259.7423 0000877  53.7111  51.2294 12.62265837568209
GLOBALSTAR M089 [+]     
1 37744U 11033F   23297.19945118 -.00000094  00000+0  52010-4 0  9999
2 37744  51.9925 214.1758 0000867  85.1615  62.1003 12.62268644568915
GLOBALSTAR M084 [+]     
1 38040U 11080A   23297.13880166 -.00000096  00000+0  41777-4 0  9996
2 38040  52.0001  81.3271 0000971 115.9425  54.7412 12.62267079546911
GLOBALSTAR M080 [+]     
1 38041U 11080B   23297.19167582 -.00000102  00000+0  11251-4 0  9995
2 38041  52.0053  82.5610 0001194 112.8766  58.4066 12.62265667546907
GLOBALSTAR M082 [+]     
1 38042U 11080C   23297.56567872 -.00000096  00000+0  42012-4 0  9994
2 38042  52.0097  36.8047 0000255  32.3096 340.4059 12.62271721547692
GLOBALSTAR M092 [+]     
1 38043U 11080D   23297.16371826 -.00000077  00000+0  14668-3 0  9997
2 38043  52.0058 128.3730 0000921 112.5977 353.0949 12.62273545546137
GLOBALSTAR M090 [+]     
1 38044U 11080E   23296.56263036 -.00000093  00000+0  62670-4 0  9999
2 38044  51.9908  34.4420 0000504  82.1935 291.2235 12.62278313547552
GLOBALSTAR M086 [+]     
1 38045U 11080F   23297.53934816 -.00000096  00000+0  40935-4 0  9992
2 38045  51.9922  31.9735 0001457  81.5156 291.5026 12.62263466547684
GLOBALSTAR M097 [+]     
1 39072U 13005A   23297.40471911 -.00000066  00000+0  20919-3 0  9996
2 39072  52.0050 306.3228 0000611  45.6022 314.4895 12.62271784494894
GLOBALSTAR M093 [+]     
1 39073U 13005B   23296.74472497 -.00000076  00000+0  15497-3 0  9999
2 39073  51.9812 302.5988 0000819  38.6956 321.3969 12.62267825494685
GLOBALSTAR M094 [+]     
1 39074U 13005C   23297.14069830 -.00000096  00000+0  40728-4 0  9996
2 39074  51.9953 215.1719 0000931  60.9265 299.1695 12.62268782496367
GLOBALSTAR M096 [+]     
1 39075U 13005D   23297.15385018 -.00000088  00000+0  88951-4 0  9998
2 39075  52.0068 263.1757 0000806  46.1268 313.9666 12.62265142495619
GLOBALSTAR M078 [+]     
1 39076U 13005E   23297.44399765 -.00000016  00000+0  48936-3 0  9994
2 39076  51.9894 347.6205 0000571 294.6118  65.4689 12.62261478494132
GLOBALSTAR M095 [+]     
1 39077U 13005F   23297.15391720 -.00000074  00000+0  16517-3 0  9990
2 39077  51.9822 346.0016 0000487 357.8978   2.1886 12.62269860494106
GLOBALSTAR M087 [+]     
1 52888U 22064A   23296.78749024 -.00000077  00000+0  97064-4 0  9992
2 52888  51.9763 316.1717 0009831 120.6239 239.5632 13.37555841 65759
